{
  "norad_id": 7530,
  "name": "OSCAR 7 (AO-7)",
  "history": [
    {
      "epoch": "2026-04-13T06:08:58.553664Z",
      "apogee_km": 1458.3668991713957,
      "perigee_km": 1439.7714923239091,
      "latitude_deg": 11.016323899121755,
      "longitude_deg": 179.7657418136558,
      "height_km": 1455.0715997217274,
      "semi_major_axis_km": 7827.206195747652,
      "eccentricity": 0.00118787,
      "inclination_deg": 101.9944,
      "raan_deg": 115.8181,
      "arg_perigee_deg": 254.5202,
      "mean_anomaly_deg": 116.6671,
      "mean_motion_rev_day": 12.53697038
    },
    {
      "epoch": "2026-04-14T19:24:01.869408Z",
      "apogee_km": 1458.3685494116107,
      "perigee_km": 1439.7695424053218,
      "latitude_deg": 6.487021082109566,
      "longitude_deg": 164.77707572368396,
      "height_km": 1449.113859697934,
      "semi_major_axis_km": 7827.206045908466,
      "eccentricity": 0.0011881,
      "inclination_deg": 101.9943,
      "raan_deg": 117.3869,
      "arg_perigee_deg": 251.463,
      "mean_anomaly_deg": 281.9682,
      "mean_motion_rev_day": 12.53697074
    },
    {
      "epoch": "2026-04-15T18:21:46.298016Z",
      "apogee_km": 1458.372329665941,
      "perigee_km": 1439.7654957702262,
      "latitude_deg": 10.078771107535522,
      "longitude_deg": -178.8580110134327,
      "height_km": 1449.2632242479058,
      "semi_major_axis_km": 7827.205912718083,
      "eccentricity": 0.0011886,
      "inclination_deg": 101.9943,
      "raan_deg": 118.3539,
      "arg_perigee_deg": 249.5807,
      "mean_anomaly_deg": 280.1984,
      "mean_motion_rev_day": 12.53697106
    },
    {
      "epoch": "2026-04-16T19:20:09.233088Z",
      "apogee_km": 1458.3761099201429,
      "perigee_km": 1439.7614491352706,
      "latitude_deg": -4.006031116596155,
      "longitude_deg": 163.57072176776668,
      "height_km": 1448.0966748662904,
      "semi_major_axis_km": 7827.205779527707,
      "eccentricity": 0.0011891,
      "inclination_deg": 101.9942,
      "raan_deg": 119.4056,
      "arg_perigee_deg": 247.5514,
      "mean_anomaly_deg": 296.5364,
      "mean_motion_rev_day": 12.53697138
    },
    {
      "epoch": "2026-04-17T16:01:40.764288Z",
      "apogee_km": 1458.3794172785265,
      "perigee_km": 1439.7580252353137,
      "latitude_deg": 63.78386367760622,
      "longitude_deg": -120.51579724181552,
      "height_km": 1466.1229581811824,
      "semi_major_axis_km": 7827.20572125692,
      "eccentricity": 0.00118953,
      "inclination_deg": 101.9941,
      "raan_deg": 120.277,
      "arg_perigee_deg": 245.8625,
      "mean_anomaly_deg": 227.8229,
      "mean_motion_rev_day": 12.53697152
    },
    {
      "epoch": "2026-04-18T19:14:10.668768Z",
      "apogee_km": 1458.3869554950725,
      "perigee_km": 1439.750378801592,
      "latitude_deg": -8.027650248879457,
      "longitude_deg": 164.25454637981727,
      "height_km": 1447.7601773915737,
      "semi_major_axis_km": 7827.2056671483315,
      "eccentricity": 0.0011905,
      "inclination_deg": 101.994,
      "raan_deg": 121.4228,
      "arg_perigee_deg": 243.6361,
      "mean_anomaly_deg": 304.5329,
      "mean_motion_rev_day": 12.53697165
    },
    {
      "epoch": "2026-04-19T20:03:31.366080Z",
      "apogee_km": 1458.3932839341232,
      "perigee_km": 1439.744183552907,
      "latitude_deg": 5.758958554589338,
      "longitude_deg": 154.87434644080975,
      "height_km": 1447.5094745210117,
      "semi_major_axis_km": 7827.205733743515,
      "eccentricity": 0.0011913,
      "inclination_deg": 101.9939,
      "raan_deg": 122.4681,
      "arg_perigee_deg": 241.6173,
      "mean_anomaly_deg": 292.5471,
      "mean_motion_rev_day": 12.53697149
    },
    {
      "epoch": "2026-04-20T06:41:05.493120Z",
      "apogee_km": 1458.3956237615275,
      "perigee_km": 1439.7418270767084,
      "latitude_deg": 11.418488533218621,
      "longitude_deg": 171.82451423397424,
      "height_km": 1456.9975880967395,
      "semi_major_axis_km": 7827.205725419118,
      "eccentricity": 0.0011916,
      "inclination_deg": 101.9938,
      "raan_deg": 122.9156,
      "arg_perigee_deg": 240.7429,
      "mean_anomaly_deg": 130.872,
      "mean_motion_rev_day": 12.53697151
    }
  ]
}